CELESTIS-17 & SHERPA-FX1
1 47486U 21006CB  26068.64311433  .00007207  00000+0  24301-3 0  9993
2 47486  97.2397 112.1052 0006630 178.1385 181.9882 15.30994801284065
STARLINK-35620          
1 66474U 25262U   26068.00596273  .00032410  00000+0  11812-2 0  9992
2 66474  43.0018 299.8720 0001905 260.8885  99.1751 15.27603895 18809
